BEIDOU-2 IGSO-5         
1 37948U 11073A   26183.72937883 -.00000128  00000+0  00000+0 0  9990
2 37948  47.6496 271.3544 0114527 222.0502 141.5350  1.00270596 53296
LUCH-5A                 
1 37951U 11074B   26193.88122573 -.00000058  00000+0  00000+0 0  9997
2 37951   8.8166  73.4291 0002562  60.1843 281.3705  1.00272914 53302
BEIDOU-2 G5             
1 38091U 12008A   26194.14490060  .00000052  00000+0  00000+0 0  9993
2 38091   3.6351  69.5276 0007330 269.0592  63.2758  1.00269601 52623
BEIDOU-2 M3             
1 38250U 12018A   26192.88876618 -.00000070  00000+0  00000+0 0  9998
2 38250  55.7352 304.0434 0020998 272.3381  87.4376  1.86229849 96402
BEIDOU-2 M4             
1 38251U 12018B   26191.21022507 -.00000069  00000+0  00000+0 0  9993
2 38251  55.6367 303.3120 0012086 272.7348  87.1429  1.86229687 96370
SES-5                   
1 38652U 12036A   26193.38239362  .00000035  00000+0  00000+0 0  9999
2 38652   0.0464 319.3864 0001880 153.8533 319.6709  1.00270430 44717
BEIDOU-2 M6             
1 38775U 12050B   26193.06769877 -.00000042  00000+0  00000+0 0  9994
2 38775  56.5659  62.0719 0012991   1.2646 358.8073  1.86230837 93772
GSAT-10                 
1 38779U 12051B   26194.14966729 -.00000166  00000+0  00000+0 0  9991
2 38779   0.0974 265.2051 0007370 188.0823 334.5972  1.00271396 50359
NAVSTAR 67 (USA 239)    
1 38833U 12053A   26193.24447966  .00000009  00000+0  00000+0 0  9996
2 38833  53.5892 142.5728 0181817  66.1687 295.6844  2.00567833 99941
GSAT0103 (GALILEO-FM3)  
1 38857U 12055A   26193.69893602 -.00000030  00000+0  00000+0 0  9990
2 38857  55.8211 100.8453 0003847 310.2580  49.7209  1.70473314 85449
BEIDOU-2 G6             
1 38953U 12059A   26194.07859745 -.00000181  00000+0  00000+0 0  9991
2 38953   4.4833  73.2399 0008826 327.2041   2.7777  1.00274143 50162
LUCH-5B                 
1 38977U 12061A   26193.91919683 -.00000146  00000+0  00000+0 0  9991
2 38977  10.5358  49.6194 0003833 145.7513  50.0812  1.00270627 49862
COSMOS 2485 [GLONASS-M] 
1 39155U 13019A   26190.90372010 -.00000024  00000+0  00000+0 0  9992
2 39155  65.4318  72.8427 0022762 231.6212 128.2346  2.13103398102760
NAVSTAR 68 (USA 242)    
1 39166U 13023A   26194.10930740  .00000009  00000+0  00000+0 0  9997
2 39166  54.4844 267.9166 0141392  51.1125 310.2162  2.00563293 96402
IRNSS-1A                
1 39199U 13034A   26191.72043649  .00000047  00000+0  00000+0 0  9995
2 39199  35.7704  63.5328 0017567 183.4462 356.2994  1.00281941 47601
NAVSTAR 69 (USA 248)    
1 39533U 14008A   26193.61252951  .00000014  00000+0  00000+0 0  9991
2 39533  53.6575 148.2827 0084125 231.5354 127.6681  2.00561364 90198
ASTRA 5B                
1 39617U 14011B   26194.13796725  .00000135  00000+0  00000+0 0  9992
2 39617   0.0815 299.6570 0001981 189.7947 234.7448  1.00273183 44920
COSMOS 2492 [GLONASS-M] 
1 39620U 14012A   26193.67812944 -.00000063  00000+0  00000+0 0  9998
2 39620  65.2814 313.0702 0010312 318.4187  41.5081  2.13103263 95782
IRNSS-1B                
1 39635U 14017A   26193.71638483  .00000145  00000+0  00000+0 0  9998
2 39635  28.8793 239.9624 0022323 191.7120 171.9393  1.00275003 45058
LUCH-5V                 
1 39727U 14023A   26194.08076413 -.00000275  00000+0  00000+0 0  9992
2 39727   5.1932  69.4676 0002071  81.9668 263.3042  1.00274498 44616
NAVSTAR 70 (USA 251)    
1 39741U 14026A   26193.88852688 -.00000089  00000+0  00000+0 0  9997
2 39741  56.4845 330.5174 0038130 325.8424  33.9072  2.00559010 89052
COSMOS 2500 [GLONASS-M] 
1 40001U 14032A   26192.90905316 -.00000063  00000+0  00000+0 0  9996
2 40001  65.2172 312.8417 0008133 189.5491 170.4407  2.13105969 93986
NAVSTAR 71 (USA 256)    
1 40105U 14045A   26192.48449105 -.00000038  00000+0  00000+0 0  9999
2 40105  55.3686  87.4969 0034253 118.3351 242.0458  2.00559992 86568
GSAT0201 (GALILEO 5)    
1 40128U 14050A   26191.05431484 -.00000022  00000+0  00000+0 0  9996
2 40128  48.8500 272.4979 1677815 180.2883 179.6634  1.85519753 78743
GSAT0202 (GALILEO 6)    
1 40129U 14050B   26192.38774232 -.00000014  00000+0  00000+0 0  9996
2 40129  48.8660 271.5287 1679177 181.0429 178.6225  1.85520566 80934
IRNSS-1C                
1 40269U 14061A   26193.88009597 -.00000170  00000+0  00000+0 0  9997
2 40269   6.5810  88.4431 0022122   5.2065 236.9875  1.00272709 42945
NAVSTAR 72 (USA 258)    
1 40294U 14068A   26192.85123007 -.00000051  00000+0  00000+0 0  9999
2 40294  57.0043  30.0052 0067364  72.1584 288.6313  2.00552830 85709
COSMOS 2501 [GLONASS-K] 
1 40315U 14075A   26193.17141326  .00000094  00000+0  00000+0 0  9997
2 40315  63.6181 189.5071 0022686 212.6526 147.2271  2.13101266 90385
NAVSTAR 73 (USA 260)    
1 40534U 15013A   26193.98998105  .00000079  00000+0  00000+0 0  9990
2 40534  53.1662 203.1104 0110271  40.3597 320.4905  2.00549767 82342
GSAT0203 (GALILEO 7)    
1 40544U 15017A   26191.08953242 -.00000080  00000+0  00000+0 0  9990
2 40544  56.7788 340.9723 0002503 258.1316 101.8369  1.70476121 69590
GSAT0204 (GALILEO 8)    
1 40545U 15017B   26191.34538535 -.00000081  00000+0  00000+0 0  9995
2 40545  56.7851 340.9839 0002638 235.0424 124.9287  1.70475622 32649
